ARIANE 5 R/B            
1 28499U 04049H   25362.68893152  .00001759  00000+0  20062-3 0  9993
2 28499  98.2532 163.5434 0083659 220.6187 138.8766 14.85056590135254
CZ-2D R/B               
1 28738U 05024B   25362.75929076  .00040793  00000+0  62639-3 0  9993
2 28738  97.3634  10.6363 0003186 293.0520  67.0397 15.54167228128745
ALOS (DAICHI)           
1 28931U 06002A   25351.73419158  .00001110  00000+0  19545-3 0  9994
2 28931  98.1098 303.1864 0001361 113.5739 246.5610 14.69501788 61443
H-2A R/B                
1 28932U 06002B   25362.83791684  .00012577  00000+0  65374-3 0  9995
2 28932  98.2320 138.9053 0054947 121.9962 238.6625 15.14905701 83701
RESURS-DK 1             
1 29228U 06021A   25362.50733574  .00003897  00000+0  23085-3 0  9991
2 29228  69.9342  61.0864 0007011 245.2412 114.8024 15.12254208 76768
CZ-4B R/B               
1 29507U 06046C   25362.67688758  .00006640  00000+0  34370-3 0  9997
2 29507  97.5718  42.7718 0034577 151.4591 208.8545 15.16035218 49280
CZ-2C R/B               
1 31114U 07010B   25362.78187172  .00000201  00000+0  11090-3 0  9993
2 31114  98.3974 114.6254 0059775 139.6449 220.9186 14.20216607969656
COSMO-SKYMED 1          
1 31598U 07023A   25362.84275128  .00004881  00000+0  44160-3 0  9991
2 31598  97.8836 188.3485 0001019  79.0869 281.0466 14.95888153  4313
COSMOS 2428             
1 31792U 07029A   25362.66784916  .00000283  00000+0  17792-3 0  9996
2 31792  70.9371 352.4363 0004580   1.4762 358.6372 14.12897101954066
SL-16 R/B               
1 31793U 07029B   25362.67266404  .00000284  00000+0  17217-3 0  9998
2 31793  70.9769 321.6647 0001917 267.9908 265.3720 14.14821286955327
KORONAS-FOTON           
1 33504U 09003A   25362.01075493  .00010299  00000+0  24421-3 0  9990
2 33504  82.4309 350.2776 0013143  61.1160 299.1403 15.41486416934699
CZ-2C R/B               
1 37731U 11030B   25362.80923646  .00001727  00000+0  22504-3 0  9994
2 37731  97.8435 316.5624 0051731 219.9184 198.7269 14.80952311779602
H-2A R/B                
1 38341U 12025E   25362.77541639  .00004545  00000+0  41836-3 0  9991
2 38341  98.4621 319.2451 0044801 182.5716 177.5278 14.94553120737629
SHIJIAN-16 (SJ-16)      
1 39358U 13057A   25362.89643001  .00006232  00000+0  61452-3 0  9996
2 39358  74.9733 319.0822 0017966 282.7052  77.2128 14.92045998660946
SL-4 R/B                
1 39679U 14021B   25362.61187801  .00013240  00000+0  31276-3 0  9993
2 39679  51.6088 323.4367 0100466 203.5378 156.0991 15.37049894645339
ALOS-2                  
1 39766U 14029A   25362.83966772  .00003734  00000+0  50656-3 0  9994
2 39766  97.9213  97.4560 0001463  96.6313 263.5065 14.79478064626390
YAOGAN-29               
1 41038U 15069A   25362.87911553  .00000170  00000+0  27640-4 0  9994
2 41038  98.0211  26.1014 0001166 158.9740 201.1521 14.82898376545384
ASTRO-H (HITOMI)        
1 41337U 16012A   25362.62725728  .00004762  00000+0  28428-3 0  9990
2 41337  30.9995  94.9393 0009649 338.0410  21.9814 15.09461267541487
HXMT (HUIYAN)           
1 42758U 17034A   25362.86363905  .00008589  00000+0  43986-3 0  9991
2 42758  43.0148  50.1415 0031639 148.9429 211.3297 15.16436630471780
CZ-2C R/B               
1 43521U 18054D   25362.50960960  .00157696  00000+0  88896-3 0  9991
2 43521  35.1327  73.6902 0013928 300.0344  59.9008 15.77586265417546
SAOCOM 1A               
1 43641U 18076A   25362.80694799  .00000248  00000+0  37694-4 0  9996
2 43641  97.8848 186.9950 0001353  84.1631 275.9737 14.82149043390869
H-2A R/B                
1 43682U 18084L   25362.83093031  .00024592  00000+0  65187-3 0  9990
2 43682  98.8770 200.2523 0026353 269.9742  89.8479 15.37991469394876
SAOCOM 1B               
1 46265U 20059A   25362.83819579  .00000695  00000+0  93911-4 0  9993
2 46265  97.8846 186.1255 0001449  84.4138 275.7240 14.82156417288252
CSS (TIANHE)            
1 48274U 21035A   25362.78858609  .00021334  00000+0  26121-3 0  9992
2 48274  41.4673 279.2286 0009137 170.0395 190.0626 15.59818740266537
COSMOS 2550             
1 48865U 21056A   25362.04982924 -.00000149  00000+0  12962-5 0  9990
2 48865  67.1448 257.6258 0008372 269.7459  90.2736 15.33830504252479
CZ-2C R/B               
1 52794U 22058K   25362.29055279  .00040673  00000+0  70496-3 0  9999
2 52794  50.1925 324.1990 0044355 262.4097  97.1832 15.49329420199042
CZ-2C R/B               
1 54039U 22132E   25362.56260860  .00035335  00000+0  50689-3 0  9991
2 54039  97.2953 359.0750 0020347   2.4504 357.6847 15.55817566179295
GSLV R/B                
1 54149U 22138AN  25362.77377858  .00003063  00000+0  26777-3 0  9992
2 54149  87.3821 190.1033 0023708  53.1382 307.2018 14.96214659173327
XRISM                   
1 57800U 23137A   25362.76061229  .00007876  00000+0  46031-3 0  9991
2 57800  31.0034  22.0954 0007559  47.2177 312.9097 15.10514865127051
ACS3                    
1 59588U 24077B   25362.85409072  .00027101  00000+0  22921-1 0  9995
2 59588  97.2561 314.8596 0072801 298.2614  61.1214 13.86261063 84376
SZ-21 MODULE            
1 66515U 25246C   25362.76988595  .00034087  00000+0  36158-3 0  9994
2 66515  41.4763 278.1983 0003746 347.8379  12.2370 15.63373311  6957
